[{"OBJECT_NAME":"STARLINK-30508","OBJECT_ID":"2023-151R","EPOCH":"2025-09-30T01:18:27.383904","MEAN_MOTION":15.02551289,"ECCENTRICITY":0.000136,"INCLINATION":43.0024,"RA_OF_ASC_NODE":144.8817,"ARG_OF_PERICENTER":270.9132,"MEAN_ANOMALY":89.1555,"EPHEMERIS_TYPE":0,"CLASSIFICATION_TYPE":"U","NORAD_CAT_ID":57979,"ELEMENT_SET_NO":999,"REV_AT_EPOCH":11141,"BSTAR":7.083658e-6,"MEAN_MOTION_DOT":-1.08e-6,"MEAN_MOTION_DDOT":0},{"OBJECT_NAME":"STARLINK-30504","OBJECT_ID":"2023-151S","EPOCH":"2025-09-29T19:22:16.597920","MEAN_MOTION":15.25902921,"ECCENTRICITY":9.616e-5,"INCLINATION":43.0013,"RA_OF_ASC_NODE":62.317,"ARG_OF_PERICENTER":209.3475,"MEAN_ANOMALY":150.7323,"EPHEMERIS_TYPE":0,"CLASSIFICATION_TYPE":"U","NORAD_CAT_ID":57980,"ELEMENT_SET_NO":999,"REV_AT_EPOCH":11236,"BSTAR":3.8837764e-5,"MEAN_MOTION_DOT":7.58e-6,"MEAN_MOTION_DDOT":0},{"OBJECT_NAME":"STARLINK-30510","OBJECT_ID":"2023-151T","EPOCH":"2025-09-29T22:02:12.041088","MEAN_MOTION":15.02580133,"ECCENTRICITY":0.0002276,"INCLINATION":43.0053,"RA_OF_ASC_NODE":145.5862,"ARG_OF_PERICENTER":252.6836,"MEAN_ANOMALY":107.3757,"EPHEMERIS_TYPE":0,"CLASSIFICATION_TYPE":"U","NORAD_CAT_ID":57981,"ELEMENT_SET_NO":999,"REV_AT_EPOCH":11139,"BSTAR":-0.00060406,"MEAN_MOTION_DOT":-8.364e-5,"MEAN_MOTION_DDOT":0},{"OBJECT_NAME":"STARLINK-30507","OBJECT_ID":"2023-151U","EPOCH":"2025-09-29T21:57:24.605568","MEAN_MOTION":15.02537548,"ECCENTRICITY":0.0001728,"INCLINATION":43.0051,"RA_OF_ASC_NODE":145.5631,"ARG_OF_PERICENTER":260.7844,"MEAN_ANOMALY":99.2803,"EPHEMERIS_TYPE":0,"CLASSIFICATION_TYPE":"U","NORAD_CAT_ID":57982,"ELEMENT_SET_NO":999,"REV_AT_EPOCH":11139,"BSTAR":0.00010207,"MEAN_MOTION_DOT":1.175e-5,"MEAN_MOTION_DDOT":0},{"OBJECT_NAME":"STARLINK-30515","OBJECT_ID":"2023-151V","EPOCH":"2025-09-30T01:04:04.310976","MEAN_MOTION":15.02539397,"ECCENTRICITY":0.00015987,"INCLINATION":43.0046,"RA_OF_ASC_NODE":144.8136,"ARG_OF_PERICENTER":254.0317,"MEAN_ANOMALY":106.0349,"EPHEMERIS_TYPE":0,"CLASSIFICATION_TYPE":"U","NORAD_CAT_ID":57983,"ELEMENT_SET_NO":999,"REV_AT_EPOCH":11141,"BSTAR":5.4992565e-5,"MEAN_MOTION_DOT":5.39e-6,"MEAN_MOTION_DDOT":0},{"OBJECT_NAME":"STARLINK-30516","OBJECT_ID":"2023-151W","EPOCH":"2025-09-29T01:03:21.749472","MEAN_MOTION":15.02535168,"ECCENTRICITY":0.00015128,"INCLINATION":43.0036,"RA_OF_ASC_NODE":150.2081,"ARG_OF_PERICENTER":262.0462,"MEAN_ANOMALY":98.0208,"EPHEMERIS_TYPE":0,"CLASSIFICATION_TYPE":"U","NORAD_CAT_ID":57984,"ELEMENT_SET_NO":999,"REV_AT_EPOCH":11126,"BSTAR":9.174064e-5,"MEAN_MOTION_DOT":1.036e-5,"MEAN_MOTION_DDOT":0},{"OBJECT_NAME":"STARLINK-30519","OBJECT_ID":"2023-151X","EPOCH":"2025-09-30T00:54:28.731456","MEAN_MOTION":15.02541519,"ECCENTRICITY":0.00019786,"INCLINATION":43.0037,"RA_OF_ASC_NODE":144.766,"ARG_OF_PERICENTER":264.9136,"MEAN_ANOMALY":95.1481,"EPHEMERIS_TYPE":0,"CLASSIFICATION_TYPE":"U","NORAD_CAT_ID":57985,"ELEMENT_SET_NO":999,"REV_AT_EPOCH":11135,"BSTAR":0.0001558332,"MEAN_MOTION_DOT":1.902e-5,"MEAN_MOTION_DDOT":0},{"OBJECT_NAME":"STARLINK-30537","OBJECT_ID":"2023-153A","EPOCH":"2025-09-30T05:20:08.927520","MEAN_MOTION":15.02543682,"ECCENTRICITY":0.00014509,"INCLINATION":43.0045,"RA_OF_ASC_NODE":221.0536,"ARG_OF_PERICENTER":262.4878,"MEAN_ANOMALY":97.5799,"EPHEMERIS_TYPE":0,"CLASSIFICATION_TYPE":"U","NORAD_CAT_ID":57991,"ELEMENT_SET_NO":999,"REV_AT_EPOCH":11063,"BSTAR":9.7821906e-5,"MEAN_MOTION_DOT":1.118e-5,"MEAN_MOTION_DDOT":0},{"OBJECT_NAME":"STARLINK-30534","OBJECT_ID":"2023-153B","EPOCH":"2025-09-29T05:38:37.471488","MEAN_MOTION":15.02529739,"ECCENTRICITY":0.00016015,"INCLINATION":43.0065,"RA_OF_ASC_NODE":226.5411,"ARG_OF_PERICENTER":266.5734,"MEAN_ANOMALY":93.4925,"EPHEMERIS_TYPE":0,"CLASSIFICATION_TYPE":"U","NORAD_CAT_ID":57992,"ELEMENT_SET_NO":999,"REV_AT_EPOCH":11048,"BSTAR":0.0001429869,"MEAN_MOTION_DOT":1.728e-5,"MEAN_MOTION_DDOT":0},{"OBJECT_NAME":"STARLINK-30536","OBJECT_ID":"2023-153C","EPOCH":"2025-09-30T05:10:34.409856","MEAN_MOTION":15.02546509,"ECCENTRICITY":0.00013951,"INCLINATION":43.0022,"RA_OF_ASC_NODE":221.0058,"ARG_OF_PERICENTER":255.0463,"MEAN_ANOMALY":105.0225,"EPHEMERIS_TYPE":0,"CLASSIFICATION_TYPE":"U","NORAD_CAT_ID":57993,"ELEMENT_SET_NO":999,"REV_AT_EPOCH":11073,"BSTAR":0.00018519834,"MEAN_MOTION_DOT":2.3e-5,"MEAN_MOTION_DDOT":0},{"OBJECT_NAME":"STARLINK-30538","OBJECT_ID":"2023-153D","EPOCH":"2025-09-30T06:36:42.963264","MEAN_MOTION":15.02578188,"ECCENTRICITY":0.00013686,"INCLINATION":43.0021,"RA_OF_ASC_NODE":220.5893,"ARG_OF_PERICENTER":259.5598,"MEAN_ANOMALY":100.509,"EPHEMERIS_TYPE":0,"CLASSIFICATION_TYPE":"U","NORAD_CAT_ID":57994,"ELEMENT_SET_NO":999,"REV_AT_EPOCH":11064,"BSTAR":0.001290771,"MEAN_MOTION_DOT":0.00017295,"MEAN_MOTION_DDOT":0},{"OBJECT_NAME":"STARLINK-30517","OBJECT_ID":"2023-153E","EPOCH":"2025-09-29T22:33:15.760800","MEAN_MOTION":15.02542237,"ECCENTRICITY":0.0001681,"INCLINATION":43.0046,"RA_OF_ASC_NODE":222.3709,"ARG_OF_PERICENTER":286.2405,"MEAN_ANOMALY":73.8253,"EPHEMERIS_TYPE":0,"CLASSIFICATION_TYPE":"U","NORAD_CAT_ID":57995,"ELEMENT_SET_NO":999,"REV_AT_EPOCH":11069,"BSTAR":8.6039e-5,"MEAN_MOTION_DOT":9.59e-6,"MEAN_MOTION_DDOT":0},{"OBJECT_NAME":"STARLINK-30523","OBJECT_ID":"2023-153G","EPOCH":"2025-09-30T05:05:44.645856","MEAN_MOTION":15.0255342,"ECCENTRICITY":0.00015778,"INCLINATION":43.0022,"RA_OF_ASC_NODE":220.977,"ARG_OF_PERICENTER":259.0971,"MEAN_ANOMALY":100.9694,"EPHEMERIS_TYPE":0,"CLASSIFICATION_TYPE":"U","NORAD_CAT_ID":57997,"ELEMENT_SET_NO":999,"REV_AT_EPOCH":11073,"BSTAR":0.00068385255,"MEAN_MOTION_DOT":9.05e-5,"MEAN_MOTION_DDOT":0},{"OBJECT_NAME":"STARLINK-30531","OBJECT_ID":"2023-153H","EPOCH":"2025-09-30T05:48:46.963008","MEAN_MOTION":15.02466722,"ECCENTRICITY":0.00010925,"INCLINATION":43.0034,"RA_OF_ASC_NODE":220.3451,"ARG_OF_PERICENTER":256.4575,"MEAN_ANOMALY":103.6145,"EPHEMERIS_TYPE":0,"CLASSIFICATION_TYPE":"U","NORAD_CAT_ID":57998,"ELEMENT_SET_NO":999,"REV_AT_EPOCH":11074,"BSTAR":0.0013529979,"MEAN_MOTION_DOT":0.00018087,"MEAN_MOTION_DDOT":0},{"OBJECT_NAME":"STARLINK-30552","OBJECT_ID":"2023-153J","EPOCH":"2025-09-30T04:46:35.053248","MEAN_MOTION":15.02547162,"ECCENTRICITY":8.827e-5,"INCLINATION":43.0014,"RA_OF_ASC_NODE":220.8777,"ARG_OF_PERICENTER":261.4712,"MEAN_ANOMALY":98.6031,"EPHEMERIS_TYPE":0,"CLASSIFICATION_TYPE":"U","NORAD_CAT_ID":57999,"ELEMENT_SET_NO":999,"REV_AT_EPOCH":11073,"BSTAR":8.4143181e-5,"MEAN_MOTION_DOT":9.34e-6,"MEAN_MOTION_DDOT":0},{"OBJECT_NAME":"STARLINK-30545","OBJECT_ID":"2023-153K","EPOCH":"2025-09-29T06:21:36.090720","MEAN_MOTION":15.02542618,"ECCENTRICITY":0.00010676,"INCLINATION":43.0023,"RA_OF_ASC_NODE":225.9075,"ARG_OF_PERICENTER":287.5531,"MEAN_ANOMALY":72.5195,"EPHEMERIS_TYPE":0,"CLASSIFICATION_TYPE":"U","NORAD_CAT_ID":58000,"ELEMENT_SET_NO":999,"REV_AT_EPOCH":11059,"BSTAR":0.00010398043,"MEAN_MOTION_DOT":1.202e-5,"MEAN_MOTION_DDOT":0}]
