STARLINK-30508          
1 57979U 23151R   25273.05448361 -.00000108  00000+0  70837-5 0  9998
2 57979  43.0024 144.8817 0001360 270.9132  89.1555 15.02551289111418
STARLINK-30504          
1 57980U 23151S   25272.80713655  .00000758  00000+0  38838-4 0  9997
2 57980  43.0013  62.3170 0000961 209.3475 150.7323 15.25902921112367
STARLINK-30510          
1 57981U 23151T   25272.91819492 -.00008364  00000+0 -60406-3 0  9994
2 57981  43.0053 145.5862 0002276 252.6836 107.3757 15.02580133111390
STARLINK-30507          
1 57982U 23151U   25272.91486812  .00001175  00000+0  10207-3 0  9996
2 57982  43.0051 145.5631 0001728 260.7844  99.2803 15.02537548111396
STARLINK-30515          
1 57983U 23151V   25273.04449434  .00000539  00000+0  54993-4 0  9995
2 57983  43.0046 144.8136 0001598 254.0317 106.0349 15.02539397111418
STARLINK-30516          
1 57984U 23151W   25272.04400173  .00001036  00000+0  91741-4 0  9997
2 57984  43.0036 150.2081 0001512 262.0462  98.0208 15.02535168111263
STARLINK-30519          
1 57985U 23151X   25273.03783254  .00001902  00000+0  15583-3 0  9993
2 57985  43.0037 144.7660 0001978 264.9136  95.1481 15.02541519111359
STARLINK-30537          
1 57991U 23153A   25273.22232555  .00001118  00000+0  97822-4 0  9992
2 57991  43.0045 221.0536 0001450 262.4878  97.5799 15.02543682110638
STARLINK-30534          
1 57992U 23153B   25272.23515592  .00001728  00000+0  14299-3 0  9991
2 57992  43.0065 226.5411 0001601 266.5734  93.4925 15.02529739110483
STARLINK-30536          
1 57993U 23153C   25273.21567604  .00002300  00000+0  18520-3 0  9990
2 57993  43.0022 221.0058 0001395 255.0463 105.0225 15.02546509110731
STARLINK-30538          
1 57994U 23153D   25273.27549726  .00017295  00000+0  12908-2 0  9994
2 57994  43.0021 220.5893 0001368 259.5598 100.5090 15.02578188110648
STARLINK-30517          
1 57995U 23153E   25272.93976575  .00000959  00000+0  86039-4 0  9990
2 57995  43.0046 222.3709 0001681 286.2405  73.8253 15.02542237110698
STARLINK-30523          
1 57997U 23153G   25273.21232229  .00009050  00000+0  68385-3 0  9999
2 57997  43.0022 220.9770 0001577 259.0971 100.9694 15.02553420110738
STARLINK-30531          
1 57998U 23153H   25273.24221022  .00018087  00000+0  13530-2 0  9993
2 57998  43.0034 220.3451 0001092 256.4575 103.6145 15.02466722110745
STARLINK-30552          
1 57999U 23153J   25273.19901682  .00000934  00000+0  84143-4 0  9997
2 57999  43.0014 220.8777 0000882 261.4712  98.6031 15.02547162110739
STARLINK-30545          
1 58000U 23153K   25272.26500105  .00001202  00000+0  10398-3 0  9992
2 58000  43.0023 225.9075 0001067 287.5531  72.5195 15.02542618110591
